LANDSAT 9               
1 49260U 21088A   23227.21826611  .00000531  00000+0  12802-3 0  9997
2 49260  98.2265 296.3944 0001476 107.0572 253.0788 14.57114525 99985
